CUTE-1 (CO-55)          
1 27844U 03031E   18051.93802576  .00000042  00000-0  38926-4 0  9995
2 27844  98.6892  62.2970 0009574 354.5545   5.5527 14.22095375759633
CUBESAT XI-IV (CO-57)   
1 27848U 03031J   18051.93546923  .00000025  00000-0  31257-4 0  9991
2 27848  98.6981  62.6522 0009678   4.8003 355.3265 14.21701814759548
CUBESAT XI 5            
1 28895U 05043F   18051.91255389  .00000154  00000-0  38434-4 0  9997
2 28895  97.8908 208.1931 0018123  78.4496 281.8741 14.63510660656631
CUTE-1.7+APD II (CO-65) 
1 32785U 08021C   18052.86310755  .00000197  00000-0  27068-4 0  9991
2 32785  97.5529  70.5172 0014465  64.1709 296.0998 14.88064453532021
AAUSAT-II               
1 32788U 08021F   18052.04136780  .00000600  00000-0  61026-4 0  9999
2 32788  97.5342  83.3192 0012392  25.1307 335.0515 14.94226547532838
DELFI-C3 (DO-64)        
1 32789U 08021G   18051.76460404  .00001690  00000-0  12077-3 0  9992
2 32789  97.5280 109.4545 0011713 341.3727  18.7069 15.05761570534268
SEEDS II (CO-66)        
1 32791U 08021J   18052.53470396  .00000403  00000-0  46672-4 0  9992
2 32791  97.5447  75.2875 0014486  48.4353 311.8105 14.90471486532287
SWISSCUBE               
1 35932U 09051B   18051.89630572  .00000128  00000-0  39910-4 0  9999
2 35932  98.5263 200.3804 0007392 198.9207 161.1716 14.56122365446474
BEESAT                  
1 35933U 09051C   18052.41294718  .00000110  00000-0  35703-4 0  9994
2 35933  98.5304 202.3808 0005363 208.4957 151.5947 14.56230602446699
ITUPSAT 1               
1 35935U 09051E   18051.92121936  .00000109  00000-0  36249-4 0  9996
2 35935  98.5415 202.1324 0007704 207.7258 152.3528 14.55412010446386
M-CUBED & EXP-1 PRIME   
1 37855U 11061F   18051.94156367  .00002021  00000-0  11095-3 0  9997
2 37855 101.7258  54.9824 0177721  66.1725 295.8003 15.04070321343705
STRAND-1                
1 39090U 13009E   18052.50502160  .00000007  00000-0  17782-4 0  9995
2 39090  98.5321 260.3151 0008121 282.7903  77.2375 14.35011736261238
AIST-2                  
1 39133U 13015D   18052.85518320  .00000156  00000-0  23624-4 0  9990
2 39133  64.8720 216.4076 0032112 240.3851 119.4069 15.04489974265864
SOMP                    
1 39134U 13015E   18051.86602722  .00001462  00000-0  79094-4 0  9994
2 39134  64.8648 143.0930 0023963 226.6057 133.3075 15.18824317267231
BEESAT 3                
1 39135U 13015F   18052.55686268  .00001094  00000-0  65650-4 0  9993
2 39135  64.8701 152.7359 0029685 247.7335 112.0642 15.16406884267118
BEESAT-2                
1 39136U 13015G   18052.55238227  .00001316  00000-0  77980-4 0  9998
2 39136  64.8700 155.2262 0029916 248.2828 111.5112 15.15885063267068
NEE-01 PEGASUS          
1 39151U 13018B   18052.81675168  .00000157  00000-0  27870-4 0  9991
2 39151  97.9754 147.7152 0016196 326.0153  34.0020 14.79855247260450
ESTCUBE 1               
1 39161U 13021C   18052.81240459  .00000160  00000-0  33337-4 0  9996
2 39161  98.0117 140.4123 0010972  70.6235 289.6138 14.72023056257477
POPACS 1                
1 39268U 13055D   18051.86927464  .00004973  00000-0  14173-3 0  9995
2 39268  81.0020 108.2047 0641573 208.8655 147.5599 14.33235982226317
POPACS 2                
1 39269U 13055E   18051.16767639  .00002537  00000-0  75331-4 0  9993
2 39269  81.0171 128.5263 0693288 261.8896  90.3132 14.21486304225293
POPACS 3                
1 39270U 13055F   18052.52066720  .00001237  00000-0  39389-4 0  9998
2 39270  81.0192 138.0010 0719835 290.4078  62.1231 14.14262952226001
ZACUBE-1 (TSHEPISOSAT)  
1 39417U 13066B   18051.89579767  .00000197  00000-0  31247-4 0  9991
2 39417  97.6009  86.6654 0059401 174.6639 185.5221 14.80877518229586
WNISAT-1                
1 39423U 13066H   18052.85500109  .00000108  00000-0  31047-4 0  9999
2 39423  97.7124  25.9442 0176555  18.1644 342.5759 14.52925667225485
GOMX 1                  
1 39430U 13066Q   18052.88563356  .00000259  00000-0  56364-4 0  9999
2 39430  97.6863  38.1434 0151105 335.0681  24.3272 14.59027030226340
EAGLE 2                 
1 39436U 13066W   18052.31347741  .00057377  00000-0  70628-3 0  9992
2 39436  97.7112 179.1889 0006332 258.3903 101.6642 15.60039220235155
CUBEBUG-2 (LO-74)       
1 39440U 13066AA  18052.12043480  .00000170  00000-0  30916-4 0  9995
2 39440  97.6092  74.2101 0079867 211.5511 148.0898 14.75614310228803
NEE-02 KRYSAOR          
1 39441U 13066AB  18051.59359381  .00000109  00000-0  22749-4 0  9993
2 39441  97.6086  72.0648 0081124 217.9252 141.6227 14.74735662228594
FUNCUBE-1 (AO-73)       
1 39444U 13066AE  18051.68213754  .00000250  00000-0  37364-4 0  9995
2 39444  97.6022  87.8395 0058664 171.2045 189.0211 14.81642605228406
UWE-3                   
1 39446U 13066AG  18052.54508327  .00000180  00000-0  30673-4 0  9994
2 39446  97.6038  80.5849 0070069 191.7040 168.2546 14.78147321228034
BRITE-TORONTO           
1 40020U 14033L   18052.84028090  .00000082  00000-0  22737-4 0  9999
2 40020  97.8021 276.9065 0086227 252.1441 107.0345 14.66469225196678
DUCHIFAT-1              
1 40021U 14033M   18051.83285632  .00000426  00000-0  49854-4 0  9996
2 40021  97.9178 330.3433 0012375 196.3069 163.7751 14.90201786199626
NANOSATC-BR1            
1 40024U 14033Q   18052.42152599  .00000304  00000-0  37920-4 0  9996
2 40024  97.9121 329.3983 0011712 195.8083 164.2770 14.89480565199640
QB50P1                  
1 40025U 14033R   18052.20186734  .00000252  00000-0  33101-4 0  9990
2 40025  97.9087 327.8234 0011868 200.7393 159.3343 14.88639090199533
QB50P2                  
1 40032U 14033Y   18052.32399558  .00000253  00000-0  33452-4 0  9991
2 40032  97.9048 326.7886 0011378 195.2096 164.8780 14.88188161199492
PERSEUS-M2              
1 40037U 14033AD  18052.82959102  .00000073  00000-0  14598-4 0  9998
2 40037  97.9048 325.1797 0013777 202.6950 157.3658 14.86324822199392
PERSEUS-M1              
1 40039U 14033AF  18052.82524844  .00000072  00000-0  14580-4 0  9991
2 40039  97.9049 324.6056 0013708 198.9994 161.0712 14.85947016199349
POLYITAN-1              
1 40042U 14033AJ  18052.83844306  .00000359  00000-0  44810-4 0  9991
2 40042  97.9162 328.5367 0014307 187.9185 172.1808 14.88310139199558
TIGRISAT                
1 40043U 14033AK  18052.70994075  .00000113  00000-0  24356-4 0  9998
2 40043  97.8260 294.1273 0059330 209.8502 149.9319 14.74097835197594
AEROCUBE 6A             
1 40045U 14033AM  18052.31445993  .00000259  00000-0  45072-4 0  9996
2 40045  97.8410 295.6411 0057274 205.9018 153.9322 14.75064154197449
AEROCUBE 6B             
1 40046U 14033AN  18052.31496487  .00000288  00000-0  49224-4 0  9996
2 40046  97.8389 295.5352 0056557 205.1803 154.6647 14.75054386197584
UKUBE-1                 
1 40074U 14037F   18052.76724457  .00000353  00000-0  49858-4 0  9997
2 40074  98.3689 184.3250 0004144 346.3154  13.7953 14.83722237196184
BRITE-PL 2              
1 40119U 14049B   18052.18830180  .00000098  00000-0  18146-4 0  9999
2 40119  97.9219 141.6281 0017401   1.4847 358.6416 14.84252741190094
FIREBIRD 4              
1 40378U 15003C   18052.61401943  .00001956  00000-0  84558-4 0  9990
2 40378  99.1012 291.4544 0131673 254.7177 103.9465 15.16746579168801
GRIFEX                  
1 40379U 15003D   18052.63092244  .00001496  00000-0  70077-4 0  9993
2 40379  99.1054 288.1656 0138357 265.6931  92.8476 15.13977095168613
EXOCUBE                 
1 40380U 15003E   18051.88773260  .00001081  00000-0  54063-4 0  9992
2 40380  99.1105 285.4501 0142630 274.2866  84.2073 15.12248685168379
TIANWANG 1C (TW-1C)     
1 40926U 15051B   18052.89751333  .00008555  00000-0  17015-3 0  9998
2 40926  97.1976  95.8338 0010039 349.9241 134.8709 15.47135666135479
TIANWANG 1A (TW-1A)     
1 40928U 15051D   18051.90931920  .00003536  00000-0  96524-4 0  9990
2 40928  97.1994  88.1591 0013247  29.8429  92.4194 15.37994776134901
EXACTVIEW 9             
1 40936U 15052G   18051.15016831  .00000861  00000-0  31739-4 0  9997
2 40936   6.0030 268.3175 0009298 138.2173 221.8785 14.76350202129643
ATHENOXAT 1             
1 41168U 15077C   18052.48005008  .00002425  00000-0  97191-4 0  9995
2 41168  14.9856 146.9926 0011968 233.9096 122.5669 15.12470841120826
GALASSIA                
1 41170U 15077E   18052.52390023  .00002079  00000-0  76756-4 0  9996
2 41170  14.9885 141.7421 0013171 255.4805 104.4054 15.12879476120889
VELOX 2                 
1 41171U 15077F   18052.42135276  .00001597  00000-0  55080-4 0  9994
2 41171  14.9906 161.0381 0008943 198.9236 161.0752 15.10453673120704
HORYU-IV                
1 41340U 16012D   18051.94036537  .00000566  00000-0  36656-4 0  9991
2 41340  31.0060 326.6116 0013947  20.0996 340.0187 15.00889050110415
E-ST@R-II               
1 41459U 16025D   18051.76741305  .00002774  00000-0  14872-3 0  9990
2 41459  98.1499 108.2167 0172486 178.2884 181.8965 15.04026790 99927
AAUSAT 4                
1 41460U 16025E   18052.71534685  .00001949  00000-0  10527-3 0  9995
2 41460  98.1433 109.5520 0163723 171.7126 188.6855 15.05304574100112
DIWATA-1                
1 41463U 98067HT  18052.90919071  .00011313  00000-0  10622-3 0  9993
2 41463  51.6392 200.1915 0001214  65.0847  23.4450 15.67708819103905
BEESAT-4                
1 41619U 16040W   18052.74801986  .00001332  00000-0  61783-4 0  9999
2 41619  97.4302 117.4303 0010083 275.5202  84.4883 15.21759081 80532
CANX-7                  
1 41788U 16059F   18052.84271782  .00006148  00000-0  10720-2 0  9995
2 41788  98.1976 118.9475 0034494 108.5291 251.9639 14.67975955 75178
ALSAT 1N                
1 41789U 16059G   18052.80503271  .00000065  00000-0  21481-4 0  9993
2 41789  98.1339 117.1330 0029886  90.4740 269.9872 14.64128138 75134
RAVAN                   
1 41849U 16067B   18052.22964524  .00000675  00000-0  63035-4 0  9995
2 41849  97.9292 139.2712 0008785 183.8339 176.2817 14.97561635 69772
